start=new Date('2022-03-21T00:00:00.000Z').valueOf();
sats=[{"NORAD_CAT_ID":"45570","MEAN_MOTION":"15.06399117","MEAN_MOTION_DDOT":"0.0000000000000","BSTAR":"-0.00000168880000","OBJECT_TYPE":"PAYLOAD","CLASSIFICATION_TYPE":"U","APOAPSIS":"548.247","PERIAPSIS":"546.186","TLE_LINE1":"1 45570U 20025AR  22079.61035750 -.00000307  00000-0 -16888-5 0  9995","ARG_OF_PERICENTER":"62.7323","ECCENTRICITY":"0.00014880","FILE":"3367488","TLE_LINE2":"2 45570  53.0526 116.2724 0001488  62.7323 297.3817 15.06399117106805","MEAN_ANOMALY":"297.3817","INCLINATION":"53.0526","DECAY_DATE":null,"OBJECT_NAME":"STARLINK-1376","CENTER_NAME":"EARTH","EPHEMERIS_TYPE":"0","OBJECT_ID":"2020-025AR","ELEMENT_SET_NO":"999","MEAN_MOTION_DOT":"-0.00000307","EPOCH":"2022-03-20T14:38:54.888000","RCS_SIZE":"LARGE","PERIOD":"95.592","LAUNCH_DATE":"2020-04-22","GP_ID":"199264726","TIME_SYSTEM":"UTC","SITE":"AFETR","COUNTRY_CODE":"US","REF_FRAME":"TEME","RA_OF_ASC_NODE":"116.2724","MEAN_ELEMENT_THEORY":"SGP4","REV_AT_EPOCH":"10680","SEMIMAJOR_AXIS":"6925.351"},{"TLE_LINE2":"2 45571  53.0550 105.6248 0001619  66.6828 293.4332 15.06393889106983","ECCENTRICITY":"0.00016190","FILE":"3367488","OBJECT_NAME":"STARLINK-1261","DECAY_DATE":null,"MEAN_ANOMALY":"293.4332","INCLINATION":"53.0550","CENTER_NAME":"EARTH","ELEMENT_SET_NO":"999","OBJECT_ID":"2020-025AS","EPHEMERIS_TYPE":"0","MEAN_MOTION_DDOT":"0.0000000000000","NORAD_CAT_ID":"45571","MEAN_MOTION":"15.06393889","OBJECT_TYPE":"PAYLOAD","BSTAR":"0.00010430000000","CLASSIFICATION_TYPE":"U","ARG_OF_PERICENTER":"66.6828","TLE_LINE1":"1 45571U 20025AS  22079.75871887  .00001272  00000-0  10430-3 0  9995","PERIAPSIS":"546.111","APOAPSIS":"548.354","COUNTRY_CODE":"US","REV_AT_EPOCH":"10698","RA_OF_ASC_NODE":"105.6248","MEAN_ELEMENT_THEORY":"SGP4","REF_FRAME":"TEME","SEMIMAJOR_AXIS":"6925.367","RCS_SIZE":"LARGE","EPOCH":"2022-03-20T18:12:33.310368","MEAN_MOTION_DOT":"0.00001272","PERIOD":"95.593","LAUNCH_DATE":"2020-04-22","TIME_SYSTEM":"UTC","SITE":"AFETR","GP_ID":"199265478"},{"PERIOD":"95.592","EPOCH":"2022-03-20T11:39:46.830816","MEAN_MOTION_DOT":"-0.00001606","RCS_SIZE":"LARGE","GP_ID":"199228401","TIME_SYSTEM":"UTC","SITE":"AFETR","LAUNCH_DATE":"2020-04-22","MEAN_ELEMENT_THEORY":"SGP4","RA_OF_ASC_NODE":"106.8494","REF_FRAME":"TEME","REV_AT_EPOCH":"10693","COUNTRY_CODE":"US","SEMIMAJOR_AXIS":"6925.359","BSTAR":"-0.00008896000000","OBJECT_TYPE":"PAYLOAD","NORAD_CAT_ID":"45572","MEAN_MOTION":"15.06396670","MEAN_MOTION_DDOT":"0.0000000000000","TLE_LINE1":"1 45572U 20025AT  22079.48595869 -.00001606  00000-0 -88960-4 0  9996","PERIAPSIS":"546.257","APOAPSIS":"548.191","ARG_OF_PERICENTER":"71.2265","CLASSIFICATION_TYPE":"U","MEAN_ANOMALY":"288.8876","INCLINATION":"53.0547","OBJECT_NAME":"STARLINK-1320","DECAY_DATE":null,"FILE":"3367010","ECCENTRICITY":"0.00013960","TLE_LINE2":"2 45572  53.0547 106.8494 0001396  71.2265 288.8876 15.06396670106932","EPHEMERIS_TYPE":"0","OBJECT_ID":"2020-025AT","ELEMENT_SET_NO":"999","CENTER_NAME":"EARTH"},{"CENTER_NAME":"EARTH","ELEMENT_SET_NO":"999","EPHEMERIS_TYPE":"0","OBJECT_ID":"2020-025AU","TLE_LINE2":"2 45573  53.0527 105.4489 0001660  49.8304 310.2830 15.06427099106377","FILE":"3367038","ECCENTRICITY":"0.00016600","DECAY_DATE":null,"OBJECT_NAME":"STARLINK-1321","MEAN_ANOMALY":"310.2830","INCLINATION":"53.0527","CLASSIFICATION_TYPE":"U","ARG_OF_PERICENTER":"49.8304","APOAPSIS":"548.280","PERIAPSIS":"545.981","TLE_LINE1":"1 45573U 20025AU  22079.79558021  .00006332  00000-0  44325-3 0  9995","MEAN_MOTION_DDOT":"0.0000000000000","MEAN_MOTION":"15.06427099","NORAD_CAT_ID":"45573","OBJECT_TYPE":"PAYLOAD","BSTAR":"0.00044325000000","SEMIMAJOR_AXIS":"6925.266","COUNTRY_CODE":"US","REV_AT_EPOCH":"10637","REF_FRAME":"TEME","MEAN_ELEMENT_THEORY":"SGP4","RA_OF_ASC_NODE":"105.4489","LAUNCH_DATE":"2020-04-22","TIME_SYSTEM":"UTC","SITE":"AFETR","GP_ID":"199235154","RCS_SIZE":"LARGE","MEAN_MOTION_DOT":"0.00006332","EPOCH":"2022-03-20T19:05:38.130144","PERIOD":"95.590"},{"MEAN_ELEMENT_THEORY":"SGP4","RA_OF_ASC_NODE":"106.8299","REF_FRAME":"TEME","REV_AT_EPOCH":"10694","COUNTRY_CODE":"US","SEMIMAJOR_AXIS":"6925.357","PERIOD":"95.592","EPOCH":"2022-03-20T11:45:05.312448","MEAN_MOTION_DOT":"0.00001123","RCS_SIZE":"LARGE","GP_ID":"199229899","TIME_SYSTEM":"UTC","SITE":"AFETR","LAUNCH_DATE":"2020-04-22","MEAN_ANOMALY":"302.7656","INCLINATION":"53.0547","OBJECT_NAME":"STARLINK-1324","DECAY_DATE":null,"FILE":"3367010","ECCENTRICITY":"0.00016630","TLE_LINE2":"2 45574  53.0547 106.8299 0001663  57.3493 302.7656 15.06397312106949","OBJECT_ID":"2020-025AV","EPHEMERIS_TYPE":"0","ELEMENT_SET_NO":"999","CENTER_NAME":"EARTH","BSTAR":"0.00009429200000","OBJECT_TYPE":"PAYLOAD","NORAD_CAT_ID":"45574","MEAN_MOTION":"15.06397312","MEAN_MOTION_DDOT":"0.0000000000000","PERIAPSIS":"546.070","TLE_LINE1":"1 45574U 20025AV  22079.48964482  .00001123  00000-0  94292-4 0  9996","APOAPSIS":"548.373","ARG_OF_PERICENTER":"57.3493","CLASSIFICATION_TYPE":"U"},{"ELEMENT_SET_NO":"999","OBJECT_ID":"2020-025AW","EPHEMERIS_TYPE":"0","CENTER_NAME":"EARTH","DECAY_DATE":null,"OBJECT_NAME":"STARLINK-1326","MEAN_ANOMALY":"305.9295","INCLINATION":"52.9987","TLE_LINE2":"2 45575  52.9987  99.2746 0001484  54.1833 305.9295 15.10933413107029","ECCENTRICITY":"0.00014840","FILE":"3367488","ARG_OF_PERICENTER":"54.1833","APOAPSIS":"534.380","PERIAPSIS":"532.328","TLE_LINE1":"1 45575U 20025AW  22079.56151287  .00010593  00000-0  64474-3 0  9996","CLASSIFICATION_TYPE":"U","OBJECT_TYPE":"PAYLOAD","BSTAR":"0.00064474000000","MEAN_MOTION_DDOT":"0.0000000000000","MEAN_MOTION":"15.10933413","NORAD_CAT_ID":"45575","SEMIMAJOR_AXIS":"6911.489","REV_AT_EPOCH":"10702","REF_FRAME":"TEME","RA_OF_ASC_NODE":"99.2746","MEAN_ELEMENT_THEORY":"SGP4","COUNTRY_CODE":"US","SITE":"AFETR","TIME_SYSTEM":"UTC","GP_ID":"199265978","LAUNCH_DATE":"2020-04-22","PERIOD":"95.305","RCS_SIZE":"LARGE","MEAN_MOTION_DOT":"0.00010593","EPOCH":"2022-03-20T13:28:34.711968"},{"LAUNCH_DATE":"2020-04-22","GP_ID":"199265729","SITE":"AFETR","TIME_SYSTEM":"UTC","EPOCH":"2022-03-20T18:44:24.192384","MEAN_MOTION_DOT":"0.00001259","RCS_SIZE":"LARGE","PERIOD":"95.592","SEMIMAJOR_AXIS":"6925.349","COUNTRY_CODE":"US","REF_FRAME":"TEME","RA_OF_ASC_NODE":"105.5029","MEAN_ELEMENT_THEORY":"SGP4","REV_AT_EPOCH":"10698","CLASSIFICATION_TYPE":"U","APOAPSIS":"548.395","TLE_LINE1":"1 45576U 20025AX  22079.78083556  .00001259  00000-0  10341-3 0  9997","PERIAPSIS":"546.034","ARG_OF_PERICENTER":"55.1099","NORAD_CAT_ID":"45576","MEAN_MOTION":"15.06399711","MEAN_MOTION_DDOT":"0.0000000000000","BSTAR":"0.00010341000000","OBJECT_TYPE":"PAYLOAD","CENTER_NAME":"EARTH","OBJECT_ID":"2020-025AX","EPHEMERIS_TYPE":"0","ELEMENT_SET_NO":"999","ECCENTRICITY":"0.00017040","FILE":"3367488","TLE_LINE2":"2 45576  53.0537 105.5029 0001704  55.1099 305.0050 15.06399711106984","MEAN_ANOMALY":"305.0050","INCLINATION":"53.0537","DECAY_DATE":null,"OBJECT_NAME":"STARLINK-1328"},{"TLE_LINE2":"2 45577  53.0535 105.4013 0001911  36.6148 323.4971 15.06436038106377","FILE":"3367057","ECCENTRICITY":"0.00019110","DECAY_DATE":null,"OBJECT_NAME":"STARLINK-1330","MEAN_ANOMALY":"323.4971","INCLINATION":"53.0535","CENTER_NAME":"EARTH","ELEMENT_SET_NO":"999","EPHEMERIS_TYPE":"0","OBJECT_ID":"2020-025AY","MEAN_MOTION_DDOT":"0.0000000000000","MEAN_MOTION":"15.06436038","NORAD_CAT_ID":"45577","OBJECT_TYPE":"PAYLOAD","BSTAR":"-0.00071772000000","CLASSIFICATION_TYPE":"U","ARG_OF_PERICENTER":"36.6148","APOAPSIS":"548.427","PERIAPSIS":"545.780","TLE_LINE1":"1 45577U 20025AY  22079.80293567 -.00010967  00000-0 -71772-3 0  9999","COUNTRY_CODE":"US","REV_AT_EPOCH":"10637","REF_FRAME":"TEME","RA_OF_ASC_NODE":"105.4013","MEAN_ELEMENT_THEORY":"SGP4","SEMIMAJOR_AXIS":"6925.238","RCS_SIZE":"LARGE","MEAN_MOTION_DOT":"-0.00010967","EPOCH":"2022-03-20T19:16:13.641888","PERIOD":"95.590","LAUNCH_DATE":"2020-04-22","TIME_SYSTEM":"UTC","SITE":"AFETR","GP_ID":"199235174"},{"EPHEMERIS_TYPE":"0","OBJECT_ID":"2020-025AZ","ELEMENT_SET_NO":"999","CENTER_NAME":"EARTH","MEAN_ANOMALY":"300.9649","INCLINATION":"53.0515","OBJECT_NAME":"STARLINK-1331","DECAY_DATE":null,"FILE":"3367488","ECCENTRICITY":"0.00016130","TLE_LINE2":"2 45578  53.0515 105.5487 0001613  59.1499 300.9649 15.06413951106988","PERIAPSIS":"546.054","TLE_LINE1":"1 45578U 20025AZ  22079.77346054  .00001615  00000-0  12727-3 0  9999","APOAPSIS":"548.288","ARG_OF_PERICENTER":"59.1499","CLASSIFICATION_TYPE":"U","BSTAR":"0.00012727000000","OBJECT_TYPE":"PAYLOAD","MEAN_MOTION":"15.06413951","NORAD_CAT_ID":"45578","MEAN_MOTION_DDOT":"0.0000000000000","SEMIMAJOR_AXIS":"6925.306","MEAN_ELEMENT_THEORY":"SGP4","RA_OF_ASC_NODE":"105.5487","REF_FRAME":"TEME","REV_AT_EPOCH":"10698","COUNTRY_CODE":"US","GP_ID":"199264727","SITE":"AFETR","TIME_SYSTEM":"UTC","LAUNCH_DATE":"2020-04-22","PERIOD":"95.591","EPOCH":"2022-03-20T18:33:46.990656","MEAN_MOTION_DOT":"0.00001615","RCS_SIZE":"LARGE"},{"RCS_SIZE":"LARGE","MEAN_MOTION_DOT":"0.00002468","EPOCH":"2022-03-20T16:46:15.479328","PERIOD":"95.591","LAUNCH_DATE":"2020-04-22","SITE":"AFETR","TIME_SYSTEM":"UTC","GP_ID":"199265479","COUNTRY_CODE":"US","REV_AT_EPOCH":"10752","MEAN_ELEMENT_THEORY":"SGP4","RA_OF_ASC_NODE":"65.8696","REF_FRAME":"TEME","SEMIMAJOR_AXIS":"6925.308","MEAN_MOTION_DDOT":"0.0000000000000","NORAD_CAT_ID":"45579","MEAN_MOTION":"15.06413129","OBJECT_TYPE":"PAYLOAD","BSTAR":"0.00018445000000","CLASSIFICATION_TYPE":"U","ARG_OF_PERICENTER":"90.4008","TLE_LINE1":"1 45579U 20025BA  22079.69879027  .00002468  00000-0  18445-3 0  9992","PERIAPSIS":"546.324","APOAPSIS":"548.022","TLE_LINE2":"2 45579  53.0540  65.8696 0001226  90.4008 269.7121 15.06413129107526","ECCENTRICITY":"0.00012260","FILE":"3367488","OBJECT_NAME":"STARLINK-1332","DECAY_DATE":null,"MEAN_ANOMALY":"269.7121","INCLINATION":"53.0540","CENTER_NAME":"EARTH","ELEMENT_SET_NO":"999","EPHEMERIS_TYPE":"0","OBJECT_ID":"2020-025BA"}];
